{"type": "FeatureCollection", "features": [ {"type": "Feature", "properties": {"norad_id": 58662, "name": "TIANMU-1 21", "group": "weather", "lat": 67.43456626127036, "lon": 95.5175515644757, "alt_km": 466.9551967259167, "timestamp": "2025-12-26T09:30:53.270619+00:00", "meta": {"OBJECT_NAME": "TIANMU-1 21", "OBJECT_ID": "2023-208C", "EPOCH": "2025-12-26T04:30:45.486144", "MEAN_MOTION": 15.31839301, "ECCENTRICITY": 0.0006517, "INCLINATION": 97.4373, "RA_OF_ASC_NODE": 113.6303, "ARG_OF_PERICENTER": 204.9579, "MEAN_ANOMALY": 155.1348, "EPHEMERIS_TYPE": 0, "CLASSIFICATION_TYPE": "U", "NORAD_CAT_ID": 58662, "ELEMENT_SET_NO": 999, "REV_AT_EPOCH": 11105, "BSTAR": 0.00038113, "MEAN_MOTION_DOT": 0.00011651, "MEAN_MOTION_DDOT": 0}, "tle": {"line1": "1 58662U 23208C   25360.18802646  .00011651  00000+0  38113-3 0  9995", "line2": "2 58662  97.4373 113.6303 0006517 204.9579 155.1348 15.31839301111053"}}, "geometry": {"type": "Point", "coordinates": [95.5175515644757, 67.43456626127036]}}, {"type": "Feature", "properties": {"norad_id": 58663, "name": "TIANMU-1 22", "group": "weather", "lat": 23.941791043270058, "lon": -65.21347446352082, "alt_km": 480.86021037320825, "timestamp": "2025-12-26T09:30:53.270630+00:00", "meta": {"OBJECT_NAME": "TIANMU-1 22", "OBJECT_ID": "2023-208D", "EPOCH": "2025-12-26T04:07:10.344000", "MEAN_MOTION": 15.27830733, "ECCENTRICITY": 0.000305, "INCLINATION": 97.438, "RA_OF_ASC_NODE": 111.2368, "ARG_OF_PERICENTER": 219.162, "MEAN_ANOMALY": 140.9399, "EPHEMERIS_TYPE": 0, "CLASSIFICATION_TYPE": "U", "NORAD_CAT_ID": 58663, "ELEMENT_SET_NO": 999, "REV_AT_EPOCH": 11088, "BSTAR": 0.00033783, "MEAN_MOTION_DOT": 9.109e-05, "MEAN_MOTION_DDOT": 0}, "tle": {"line1": "1 58663U 23208D   25360.17164750  .00009109  00000+0  33783-3 0  9995", "line2": "2 58663  97.4380 111.2368 0003050 219.1620 140.9399 15.27830733110884"}}, "geometry": {"type": "Point", "coordinates": [-65.21347446352082, 23.941791043270058]}}, {"type": "Feature", "properties": {"norad_id": 58700, "name": "TIANMU-1 15", "group": "weather", "lat": 52.030845590100476, "lon": 11.484716989697052, "alt_km": 488.30783570030144, "timestamp": "2025-12-26T09:30:53.270640+00:00", "meta": {"OBJECT_NAME": "TIANMU-1 15", "OBJECT_ID": "2024-004A", "EPOCH": "2025-12-26T04:13:56.316864", "MEAN_MOTION": 15.24584986, "ECCENTRICITY": 0.0006105, "INCLINATION": 97.4631, "RA_OF_ASC_NODE": 181.5955, "ARG_OF_PERICENTER": 232.9469, "MEAN_ANOMALY": 127.1211, "EPHEMERIS_TYPE": 0, "CLASSIFICATION_TYPE": "U", "NORAD_CAT_ID": 58700, "ELEMENT_SET_NO": 999, "REV_AT_EPOCH": 10939, "BSTAR": 0.00029524, "MEAN_MOTION_DOT": 7.209e-05, "MEAN_MOTION_DDOT": 0}, "tle": {"line1": "1 58700U 24004A   25360.17634626  .00007209  00000+0  29524-3 0  9993", "line2": "2 58700  97.4631 181.5955 0006105 232.9469 127.1211 15.24584986109392"}}, "geometry": {"type": "Point", "coordinates": [11.484716989697052, 52.030845590100476]}}, {"type": "Feature", "properties": {"norad_id": 58701, "name": "TIANMU-1 16", "group": "weather", "lat": -29.985336940093305, "lon": -3.141675974010766, "alt_km": 495.1753427308222, "timestamp": "2025-12-26T09:30:53.270652+00:00", "meta": {"OBJECT_NAME": "TIANMU-1 16", "OBJECT_ID": "2024-004B", "EPOCH": "2025-12-26T03:52:11.993088", "MEAN_MOTION": 15.24612276, "ECCENTRICITY": 0.000445, "INCLINATION": 97.457, "RA_OF_ASC_NODE": 180.9586, "ARG_OF_PERICENTER": 234.681, "MEAN_ANOMALY": 125.4011, "EPHEMERIS_TYPE": 0, "CLASSIFICATION_TYPE": "U", "NORAD_CAT_ID": 58701, "ELEMENT_SET_NO": 999, "REV_AT_EPOCH": 10939, "BSTAR": 0.00028427, "MEAN_MOTION_DOT": 6.942e-05, "MEAN_MOTION_DDOT": 0}, "tle": {"line1": "1 58701U 24004B   25360.16124992  .00006942  00000+0  28427-3 0  9997", "line2": "2 58701  97.4570 180.9586 0004450 234.6810 125.4011 15.24612276109391"}}, "geometry": {"type": "Point", "coordinates": [-3.141675974010766, -29.985336940093305]}}, {"type": "Feature", "properties": {"norad_id": 58702, "name": "TIANMU-1 17", "group": "weather", "lat": -62.26035747164625, "lon": -163.96136073646156, "alt_km": 497.8667800653293, "timestamp": "2025-12-26T09:30:53.270663+00:00", "meta": {"OBJECT_NAME": "TIANMU-1 17", "OBJECT_ID": "2024-004C", "EPOCH": "2025-12-26T05:03:58.449888", "MEAN_MOTION": 15.24655961, "ECCENTRICITY": 0.0003617, "INCLINATION": 97.4604, "RA_OF_ASC_NODE": 181.4252, "ARG_OF_PERICENTER": 235.206, "MEAN_ANOMALY": 124.8838, "EPHEMERIS_TYPE": 0, "CLASSIFICATION_TYPE": "U", "NORAD_CAT_ID": 58702, "ELEMENT_SET_NO": 999, "REV_AT_EPOCH": 10939, "BSTAR": 0.00029433, "MEAN_MOTION_DOT": 7.199e-05, "MEAN_MOTION_DDOT": 0}, "tle": {"line1": "1 58702U 24004C   25360.21109317  .00007199  00000+0  29433-3 0  9991", "line2": "2 58702  97.4604 181.4252 0003617 235.2060 124.8838 15.24655961109392"}}, "geometry": {"type": "Point", "coordinates": [-163.96136073646156, -62.26035747164625]}}, {"type": "Feature", "properties": {"norad_id": 58703, "name": "TIANMU-1 18", "group": "weather", "lat": 27.251861693798745, "lon": 177.93693923752494, "alt_km": 492.7592415031777, "timestamp": "2025-12-26T09:30:53.270673+00:00", "meta": {"OBJECT_NAME": "TIANMU-1 18", "OBJECT_ID": "2024-004D", "EPOCH": "2025-12-26T04:40:08.491872", "MEAN_MOTION": 15.24638197, "ECCENTRICITY": 0.0003009, "INCLINATION": 97.4621, "RA_OF_ASC_NODE": 181.6069, "ARG_OF_PERICENTER": 231.7291, "MEAN_ANOMALY": 128.3676, "EPHEMERIS_TYPE": 0, "CLASSIFICATION_TYPE": "U", "NORAD_CAT_ID": 58703, "ELEMENT_SET_NO": 999, "REV_AT_EPOCH": 10939, "BSTAR": 0.00030174, "MEAN_MOTION_DOT": 7.378e-05, "MEAN_MOTION_DDOT": 0}, "tle": {"line1": "1 58703U 24004D   25360.19454273  .00007378  00000+0  30174-3 0  9996", "line2": "2 58703  97.4621 181.6069 0003009 231.7291 128.3676 15.24638197109393"}}, "geometry": {"type": "Point", "coordinates": [177.93693923752494, 27.251861693798745]}}, {"type": "Feature", "properties": {"norad_id": 58990, "name": "INSAT-3DS", "group": "weather", "lat": -0.05364504771028171, "lon": -40.02461240301666, "alt_km": 35782.32930668993, "timestamp": "2025-12-26T09:30:53.270688+00:00", "meta": {"OBJECT_NAME": "INSAT-3DS", "OBJECT_ID": "2024-033A", "EPOCH": "2025-12-25T23:43:34.512960", "MEAN_MOTION": 1.00271049, "ECCENTRICITY": 0.0001311, "INCLINATION": 0.0621, "RA_OF_ASC_NODE": 99.2069, "ARG_OF_PERICENTER": 176.6391, "MEAN_ANOMALY": 256.8968, "EPHEMERIS_TYPE": 0, "CLASSIFICATION_TYPE": "U", "NORAD_CAT_ID": 58990, "ELEMENT_SET_NO": 999, "REV_AT_EPOCH": 4533, "BSTAR": 0, "MEAN_MOTION_DOT": -1.34e-06, "MEAN_MOTION_DDOT": 0}, "tle": {"line1": "1 58990U 24033A   25359.98859390 -.00000134  00000+0  00000+0 0  9995", "line2": "2 58990   0.0621  99.2069 0001311 176.6391 256.8968  1.00271049 45339"}}, "geometry": {"type": "Point", "coordinates": [-40.02461240301666, -0.05364504771028171]}}, {"type": "Feature", "properties": {"norad_id": 59051, "name": "METEOR-M2 4", "group": "weather", "lat": -48.028114347984484, "lon": 127.31626359995543, "alt_km": 823.91211797087, "timestamp": "2025-12-26T09:30:53.270699+00:00", "meta": {"OBJECT_NAME": "METEOR-M2 4", "OBJECT_ID": "2024-039A", "EPOCH": "2025-12-26T05:03:57.070944", "MEAN_MOTION": 14.22403315, "ECCENTRICITY": 0.0006349, "INCLINATION": 98.6786, "RA_OF_ASC_NODE": 316.9099, "ARG_OF_PERICENTER": 317.7793, "MEAN_ANOMALY": 42.2896, "EPHEMERIS_TYPE": 0, "CLASSIFICATION_TYPE": "U", "NORAD_CAT_ID": 59051, "ELEMENT_SET_NO": 999, "REV_AT_EPOCH": 9467, "BSTAR": 3.9335e-05, "MEAN_MOTION_DOT": 4.4e-07, "MEAN_MOTION_DDOT": 0}, "tle": {"line1": "1 59051U 24039A   25360.21107721  .00000044  00000+0  39335-4 0  9999", "line2": "2 59051  98.6786 316.9099 0006349 317.7793  42.2896 14.22403315 94674"}}, "geometry": {"type": "Point", "coordinates": [127.31626359995543, -48.028114347984484]}}, {"type": "Feature", "properties": {"norad_id": 60133, "name": "GOES 19", "group": "weather", "lat": 0.007764773764437771, "lon": 162.66496883450378, "alt_km": 35790.58956177082, "timestamp": "2025-12-26T09:30:53.270711+00:00", "meta": {"OBJECT_NAME": "GOES 19", "OBJECT_ID": "2024-119A", "EPOCH": "2025-12-26T02:31:04.440000", "MEAN_MOTION": 1.00270613, "ECCENTRICITY": 0.0001081, "INCLINATION": 0.0424, "RA_OF_ASC_NODE": 180.8341, "ARG_OF_PERICENTER": 137.6202, "MEAN_ANOMALY": 98.9833, "EPHEMERIS_TYPE": 0, "CLASSIFICATION_TYPE": "U", "NORAD_CAT_ID": 60133, "ELEMENT_SET_NO": 999, "REV_AT_EPOCH": 522, "BSTAR": 0, "MEAN_MOTION_DOT": -2.26e-06, "MEAN_MOTION_DDOT": 0}, "tle": {"line1": "1 60133U 24119A   25360.10491250 -.00000226  00000+0  00000+0 0  9997", "line2": "2 60133   0.0424 180.8341 0001081 137.6202  98.9833  1.00270613  5220"}}, "geometry": {"type": "Point", "coordinates": [162.66496883450378, 0.007764773764437771]}}, {"type": "Feature", "properties": {"norad_id": 65815, "name": "FENGYUN 3H", "group": "weather", "lat": -14.847575392894733, "lon": -57.99305040403618, "alt_km": 830.6425734523418, "timestamp": "2025-12-26T09:30:53.270722+00:00", "meta": {"OBJECT_NAME": "FENGYUN 3H", "OBJECT_ID": "2025-219A", "EPOCH": "2025-12-26T02:49:14.034720", "MEAN_MOTION": 14.1990818, "ECCENTRICITY": 8.65e-05, "INCLINATION": 98.6602, "RA_OF_ASC_NODE": 299.4185, "ARG_OF_PERICENTER": 109.6936, "MEAN_ANOMALY": 250.4334, "EPHEMERIS_TYPE": 0, "CLASSIFICATION_TYPE": "U", "NORAD_CAT_ID": 65815, "ELEMENT_SET_NO": 999, "REV_AT_EPOCH": 1282, "BSTAR": 6.5147e-05, "MEAN_MOTION_DOT": 9.5e-07, "MEAN_MOTION_DDOT": 0}, "tle": {"line1": "1 65815U 25219A   25360.11752355  .00000095  00000+0  65147-4 0  9999", "line2": "2 65815  98.6602 299.4185 0000865 109.6936 250.4334 14.19908180 12824"}}, "geometry": {"type": "Point", "coordinates": [-57.99305040403618, -14.847575392894733]}}]}